#aV2020 11  8  0  0  0.00000000     288 DD+AD WGS84 FIT  NGA
## 2131      0.00000000   300.00000000 59161 0.0000000000000
+   31     1  2  3  4  5  6  7  8  9 10 11 12 13 15 16 17 18
+         19 20 21 22 23 24 25 26 27 28 29 30 31 32  0  0  0
+          0  0  0  0  0  0  0  0  0  0  0  0  0  0  0  0  0
+          0  0  0  0  0  0  0  0  0  0  0  0  0  0  0  0  0
+          0  0  0  0  0  0  0  0  0  0  0  0  0  0  0  0  0
++         2  2  2  2  2  2  2  2  2  2  2  2  2  2  2  2  2
++         2  2  2  2  2  2  2  2  2  2  2  2  2  2  0  0  0
++         0  0  0  0  0  0  0  0  0  0  0  0  0  0  0  0  0
++         0  0  0  0  0  0  0  0  0  0  0  0  0  0  0  0  0
++         0  0  0  0  0  0  0  0  0  0  0  0  0  0  0  0  0
%c cc cc ccc ccc cccc cccc cccc cccc ccccc ccccc ccccc ccccc
%c cc cc ccc ccc cccc cccc cccc cccc ccccc ccccc ccccc ccccc
%f  0.0000000  0.000000000  0.00000000000  0.000000000000000
%f  0.0000000  0.000000000  0.00000000000  0.000000000000000
%i    0    0    0    0      0      0      0      0         0
%i    0    0    0    0      0      0      0      0         0
/*      NGA, ST. LOUIS,MO.                                  
/*   EPHEMERIS COMPUTED FROM 2 DAYS OF DATA                 
/*   EPOCHA v5 SMOOTHER                                     
/*   G1762 IERS2010 SATAF SATAPC                            
*  2020 11  8  4 50  0.00000000
P  1  14205.042817 -20366.068212   8712.731274    809.563117                    
V  1  -2064.207364  11508.515797  29784.905321     -0.034859                    
P  2 -15580.430108   1310.709808 -20820.440063   -539.811033                    
V  2   7396.137526 -26977.550029  -7033.819784     -0.047577                    
P  3  18340.560704 -12894.470710 -14247.472696   -347.746562                    
V  3  18071.568017   -836.692419  24255.895745     -0.101148                    
P  4   8593.105235 -13330.252000 -21295.019792   -153.236930                    
V  4  16849.478281  21180.525663  -6499.864337     -0.036865                    
P  5 -26220.973418   1776.896228  -4638.753614    -25.347776                    
V  5   5030.959851  -3832.713800 -30753.612691     -0.009385                    
P  6  -8703.328023 -14897.464319 -20124.323449     -0.056363                    
V  6   9986.201732 -23627.253327  13169.928515     -0.017687                    
P  7   4557.261561 -25055.147389   6910.240888   -409.904436                    
V  7   6134.514442  -6700.382798 -30223.901782     -0.077333                    
P  8  15570.777489  -4097.716587  21185.164601    -54.327179                    
V  8  16829.235401  20852.170930  -8074.136819     -0.013993                    
P  9  -2918.547244 -21082.384421 -15940.285985   -286.756412                    
V  9  14559.176949  14091.979537 -21404.411890     -0.049211                    
P 10  11424.796241  12531.568463  20597.255785   -499.381724                    
V 10 -25401.136092   4924.020480  10888.318125     -0.092147                    
P 11  12627.341485 -14075.968317  18320.202056   -114.711917                    
V 11   4660.668568  23902.980548  14422.635814      0.105393                    
P 12 -20932.096069  10452.842577 -12658.973023     43.296939                    
V 12 -15840.817168   -558.963928  26365.769324     -0.051523                    
P 13 -18395.185531  -6083.038379  18085.682877     62.702286                    
V 13 -10970.808460 -20462.569041 -17796.732637      0.038351                    
P 15 -15114.597990   6656.381326  20510.438928   -191.494010                    
V 15 -18638.126983 -19417.289727  -6942.018400      0.025856                    
P 16  26567.831437    677.812398  -3732.504453   -233.439408                    
V 16  -4254.757379   2197.211093 -31336.181174     -0.052866                    
P 17 -15108.544765 -21859.257067    757.810230    350.972428                    
V 17   1936.782682   -859.207627  32210.313776      0.051782                    
P 18  -4140.919663  24928.708645   8080.495202    318.494714                    
V 18  -6210.637457   8570.105794 -29640.045679      0.050496                    
P 19 -17676.502950 -18783.730744  -6783.287073    -81.190456                    
V 19  -2856.467946  -7929.675629  30617.420820      0.050293                    
P 20  -1369.473484  16405.166155  20727.250171    526.106818                    
V 20 -25741.342996   6894.135355  -7389.435841     -0.001527                    
P 21  16692.093900 -11016.479820  18069.607586     66.023504                    
V 21  -4637.567836  21173.092865  18282.467166      0.038516                    
P 22  23314.723598 -10774.677736  -6246.465504   -732.960573                    
V 22   8915.119461   1549.816689  29830.600827      0.051824                    
P 23   -392.469760  15398.956088  21603.386341     97.516407                    
V 23 -27103.161978   4697.931580  -3860.017387      0.049355                    
P 24 -14832.405260  18066.202247  12018.599962      6.731923                    
V 24   1490.948361 -16080.256836  25931.321924     -0.005463                    
P 25  -8929.819630  15413.955458 -19855.982189     18.450922                    
V 25 -24648.761496   2703.892116  13609.346352      0.064232                    
P 26  21322.130010   6533.240902 -14645.305257    308.270720                    
V 26 -17672.366449   5863.627834 -22923.266891      0.060943                    
P 27  20060.521786   8073.529512  15504.933465     -8.809376                    
V 27  11360.128471  16259.271512 -22612.309723     -0.084217                    
P 28 -11614.099884 -13138.920271  20478.010644    658.161160                    
V 28  24617.722497  -2528.612982  12868.820523     -0.045912                    
P 29   -302.857187  19900.738654 -17601.130762   -232.033119                    
V 29 -13799.753598 -17483.235699 -19614.542853     -0.077336                    
P 30  -2636.550866 -21848.487177  14763.119906   -331.762149                    
V 30   9712.195604 -16332.746493 -22729.120473     -0.066932                    
P 31  10644.601314  12598.430882 -20782.082093    -80.056148                    
V 31 -11015.605715  23983.361256   9380.915754     -0.024178                    
P 32  16544.008086  20878.467980    747.878424    365.429850                    
V 32  -2703.380884   1137.429130  31545.125400      0.034393                    
EOF
